STARLINK-36105          
1 66850U 25281C   26030.76447554  .00017931  00000+0  65965-3 0  9990
2 66850  42.9992 197.8022 0001882 270.6067  89.4569 15.27573017 10389
STARLINK-36094          
1 66851U 25281D   26030.81187234  .00030456  00000+0  11117-2 0  9999
2 66851  42.9980 197.2947 0001614 267.8900  92.1767 15.27581631 10397
STARLINK-35992          
1 66852U 25281E   26030.80801032  .00029223  00000+0  10666-2 0  9996
2 66852  43.0016 197.2658 0002243 261.6776  98.3821 15.27600830 10393
STARLINK-35986          
1 66853U 25281F   26030.80416178  .00023897  00000+0  87469-3 0  9997
2 66853  42.9997 197.2381 0001529 266.0751  93.9926 15.27595831 10392
STARLINK-36087          
1 66854U 25281G   26030.80030695  .00022103  00000+0  80918-3 0  9995
2 66854  42.9964 197.2091 0002051 267.2388  92.8229 15.27625588 10392
STARLINK-36090          
1 66855U 25281H   26030.79003726  .00018495  00000+0  68008-3 0  9994
2 66855  42.9997 197.1307 0001760 274.1890  85.8761 15.27571397 10390
STARLINK-36072          
1 66856U 25281J   26030.84785189  .00023215  00000+0  85040-3 0  9992
2 66856  43.0020 197.5754 0002342 282.8743  77.1847 15.27582345 10394
STARLINK-36083          
1 66857U 25281K   26030.84013628  .00026357  00000+0  96352-3 0  9993
2 66857  43.0030 197.5140 0002504 265.4808  94.5758 15.27591538 10392
STARLINK-35118          
1 66858U 25281L   26030.82600492  .00017716  00000+0  65165-3 0  9990
2 66858  43.0027 197.3999 0001667 276.3402  83.7260 15.27585885 10395
STARLINK-35646          
1 66859U 25281M   26031.14908831  .00017662  00000+0  64995-3 0  9995
2 66859  42.9906 195.5254 0000619   8.8397 351.2465 15.27572099 10440
STARLINK-35987          
1 66860U 25281N   26030.80544583  .00025655  00000+0  93834-3 0  9994
2 66860  43.0004 197.2451 0001820 270.7341  89.3302 15.27587348 10391
STARLINK-35991          
1 66861U 25281P   26030.86183706  .00031744  00000+0  11572-2 0  9991
2 66861  42.9986 196.8105 0001889 270.5400  89.5235 15.27604316 10403
STARLINK-35974          
1 66862U 25281Q   26030.88368021  .00014516  00000+0  53591-3 0  9995
2 66862  43.0004 196.9729 0001476 272.0262  88.0421 15.27584346 10406
STARLINK-36134          
1 66863U 25281R   26030.52462493  .00049962  00000+0  18124-2 0  9990
2 66863  43.0012 198.5794 0002450 277.9780  82.0793 15.27587216 10357
STARLINK-36070          
1 66864U 25281S   26031.16450857  .00018866  00000+0  69334-3 0  9992
2 66864  42.9959 195.6443 0000640 284.3607  75.7173 15.27579131 10442
STARLINK-36117          
1 66865U 25281T   26030.46695459  .00031227  00000+0  11386-2 0  9993
2 66865  42.9967 199.0062 0001558 281.4506  78.6171 15.27603924 10349
STARLINK-36126          
1 66866U 25281U   26030.84913285  .00023460  00000+0  85924-3 0  9996
2 66866  43.0008 197.5789 0002193 253.8918 106.1692 15.27583016 10381
STARLINK-36101          
1 66867U 25281V   26030.84528279  .00033989  00000+0  12354-2 0  9995
2 66867  42.9983 197.5504 0001794 257.2029 102.8622 15.27674358 10380
STARLINK-36108          
1 66868U 25281W   26030.51448836  .00028078  00000+0  10264-2 0  9991
2 66868  43.0003 199.3669 0000218 270.4927  89.5899 15.27566291 10330
STARLINK-36092          
1 66869U 25281X   26031.16193622  .00027233  00000+0  99573-3 0  9997
2 66869  42.9962 195.6224 0000419 270.7840  89.2964 15.27572682 10431
STARLINK-36114          
1 66870U 25281Y   26030.83114406  .00023905  00000+0  87525-3 0  9991
2 66870  42.9982 197.4380 0001651 269.6086  90.4576 15.27585096 10386
STARLINK-36095          
1 66871U 25281Z   26030.82729007  .00038123  00000+0  13874-2 0  9993
2 66871  42.9989 197.4074 0001853 274.3056  85.7584 15.27586854 10376
STARLINK-36082          
1 66872U 25281AA  26030.82344276  .00036110  00000+0  13144-2 0  9999
2 66872  43.0006 197.3762 0001054   2.4761 357.6096 15.27603824 10385
STARLINK-36128          
1 66873U 25281AB  26030.81315681  .00029846  00000+0  10896-2 0  9996
2 66873  43.0013 197.3000 0001867 274.0835  85.9804 15.27584856 10336
STARLINK-36129          
1 66874U 25281AC  26031.14651657  .00027556  00000+0  10071-2 0  9991
2 66874  42.9988 195.5024 0001421 276.7760  83.2930 15.27581390 10436
STARLINK-36053          
1 66875U 25281AD  26030.80931021  .00024471  00000+0  89491-3 0  9996
2 66875  42.9998 197.2712 0002397 257.9436 102.1147 15.27612333 10337
STARLINK-35702          
1 66876U 25281AE  26030.81572564  .00036639  00000+0  13339-2 0  9997
2 66876  43.0008 197.3173 0001928 266.4464  93.6168 15.27590533 10388
STARLINK-35866          
1 66878U 25283A   26030.85959336  .00018687  00000+0  64143-3 0  9994
2 66878  53.1593 199.7790 0001130  91.4588 268.6542 15.30201536 10050
STARLINK-35749          
1 66879U 25283B   26030.84798654  .00019416  00000+0  66603-3 0  9992
2 66879  53.1583 199.7075 0001097  87.4030 272.7096 15.30195795 10054
STARLINK-35844          
1 66880U 25283C   26030.78794602  .00027850  00000+0  94868-3 0  9991
2 66880  53.1596 200.0443 0001092  82.7675 277.3450 15.30208080 10049
STARLINK-35860          
1 66881U 25283D   26031.16822692  .00031052  00000+0  10557-2 0  9997
2 66881  53.1583 198.1501 0001191  87.6736 272.4401 15.30213314 10105
STARLINK-35912          
1 66882U 25283E   26030.83121489  .00019993  00000+0  68527-3 0  9998
2 66882  53.1560 200.3155 0000901  80.1607 279.9495 15.30202318 10045
STARLINK-35947          
1 66883U 25283F   26031.15567919  .00021148  00000+0  72401-3 0  9998
2 66883  53.1567 198.7819 0001274  73.3667 286.7474 15.30204969 10119
STARLINK-36057          
1 66884U 25283G   26030.82276205 -.00020462  00000+0 -68031-3 0  9991
2 66884  53.1572 200.2593 0001079  69.6618 290.4498 15.30214574 10044
STARLINK-35954          
1 66885U 25283H   26030.76062370  .00028054  00000+0  95596-3 0  9990
2 66885  53.1573 200.5834 0001025  84.1397 275.9720 15.30191829 10036
STARLINK-35900          
1 66886U 25283J   26030.81538464  .00021512  00000+0  73638-3 0  9994
2 66886  53.1583 200.2136 0001036  75.0794 285.0321 15.30198164 10041
STARLINK-35925          
1 66887U 25283K   26030.74690374  .00021270  00000+0  72821-3 0  9990
2 66887  53.1580 200.4980 0001134  67.0604 293.0516 15.30199399 10033
STARLINK-35919          
1 66888U 25283L   26030.67842467  .00012743  00000+0  44165-3 0  9990
2 66888  53.1585 200.7779 0001323  44.8793 315.2315 15.30198250 10028
STARLINK-35852          
1 66889U 25283M   26030.74057109  .00023514  00000+0  80383-3 0  9990
2 66889  53.1588 200.4555 0001168  63.7628 296.3493 15.30186524 10033
STARLINK-35885          
1 66890U 25283N   26030.86803588  .00024700  00000+0  84327-3 0  9995
2 66890  53.1590 199.8287 0001319  83.5316 276.5835 15.30201866 10052
STARLINK-35855          
1 66891U 25283P   26030.86487009  .00018613  00000+0  63885-3 0  9994
2 66891  53.1591 199.8082 0000639  70.8713 289.2357 15.30206808 10052
STARLINK-35883          
1 66892U 25283Q   26030.73107347  .00012695  00000+0  43999-3 0  9993
2 66892  53.1600 200.3941 0000813  95.0909 265.0185 15.30200532 10033
STARLINK-36033          
1 66893U 25283R   26031.16517817  .00017840  00000+0  61296-3 0  9996
2 66893  53.1575 198.8397 0001481  77.5341 282.5825 15.30201788 10093
STARLINK-35718          
1 66894U 25283S   26030.79005910  .00029336  00000+0  99922-3 0  9991
2 66894  53.1596 200.0530 0001363  96.4397 263.6759 15.30182593 10045
STARLINK-35971          
1 66895U 25283T   26031.15462344  .00020684  00000+0  70832-3 0  9997
2 66895  53.1575 198.7732 0000721  95.9523 264.1560 15.30210009 10097
STARLINK-35791          
1 66896U 25283U   26030.84481956  .00026998  00000+0  92031-3 0  9992
2 66896  53.1592 199.6844 0001196  75.7837 284.3297 15.30201475 10056
STARLINK-36079          
1 66897U 25283V   26030.88703296  .00024987  00000+0  85238-3 0  9998
2 66897  53.1577 199.9486 0001136  86.4048 273.7083 15.30221045 10041
STARLINK-36065          
1 66898U 25283W   26030.75429048  .00035476  00000+0  12043-2 0  9993
2 66898  53.1579 200.5398 0001126  84.5982 275.5148 15.30197904 10037
STARLINK-36064          
1 66899U 25283X   26030.88281050  .00025752  00000+0  87870-3 0  9994
2 66899  53.1586 199.9206 0001216  84.4376 275.6763 15.30195372 10054
STARLINK-36074          
1 66900U 25283Y   26030.87964317  .00017320  00000+0  59551-3 0  9997
2 66900  53.1584 199.9003 0001156  82.1119 278.0013 15.30201987 10058
STARLINK-36043          
1 66901U 25283Z   26030.87331213  .00027552  00000+0  93902-3 0  9997
2 66901  53.1590 199.8600 0001136  81.9095 278.2034 15.30196116 10058
STARLINK-35983          
1 66902U 25283AA  26030.73951756  .00022711  00000+0  77667-3 0  9995
2 66902  53.1587 200.4485 0001177  82.8192 277.2942 15.30196267 10030
STARLINK-36077          
1 66903U 25283AB  26030.86697686  .00019820  00000+0  67920-3 0  9997
2 66903  53.1592 199.8197 0001116  83.0750 277.0378 15.30215470 10055
STARLINK-36059          
1 66904U 25283AC  26030.73319394  .00018536  00000+0  63643-3 0  9992
2 66904  53.1594 200.4053 0001237  96.0480 264.0662 15.30197872 10031
STARLINK-36075          
1 66905U 25283AD  26031.16412032  .00023538  00000+0  80417-3 0  9990
2 66905  53.1573 198.8299 0001283  78.7781 281.3364 15.30206006 10090
DUPLEX                  
1 66906U 98067XS  26030.92332449  .00028303  00000+0  44212-3 0  9995
2 66906  51.6299 257.9730 0001559  80.7038 279.4129 15.53569248  9258
1998-067XT              
1 66907U 98067XT  26031.01356155  .00080538  00000+0  98232-3 0  9996
2 66907  51.6275 256.3251 0002883 157.7778 202.3340 15.59761817  9286
1998-067XU              
1 66908U 98067XU  26031.01316627  .00086635  00000+0  10548-2 0  9994
2 66908  51.6269 256.3207 0002692 156.1936 203.9182 15.59778525  9283
SILVERSAT               
1 66909U 98067XV  26030.99486521  .00090350  00000+0  10527-2 0  9998
2 66909  51.6275 256.1995 0003302 167.8709 192.2364 15.60906709  9280
